STARLINK-4465
1 53496U 22099AH  26090.87427935  .00161534  13057-4  31435-3 0  9990
2 53496  97.6358 240.5034 0004626 303.9763  56.1075 16.00299065201043
